ORBCOMM FM05            
1 25117U 97084F   24201.60568469  .00003292  00000+0  10140-2 0  9990
2 25117  45.0136 161.7605 0004129 342.6123  17.4586 14.43091947392513
ORBCOMM FM06            
1 25118U 97084G   24201.91682845  .00004157  00000+0  12667-2 0  9997
2 25118  45.0128 160.4006 0003239 349.1203  59.5100 14.43184826393472
ORBCOMM FM07            
1 25119U 97084H   24201.90320697  .00003563  00000+0  10942-2 0  9995
2 25119  45.0124 161.0486 0004852 338.6109  21.4537 14.43082239393464
ORBCOMM FM03            
1 25158U 98007B   24201.84920342  .00003104  00000+0  11788-2 0  9990
2 25158 107.9692 173.7532 0045459 109.2882 251.3181 14.32455379376417
ORBCOMM FM04            
1 25159U 98007C   24201.89447276  .00002919  00000+0  11078-2 0  9991
2 25159 107.9683 176.8325 0041031 106.8215 253.7431 14.32728600376590
ORBCOMM FM17            
1 25413U 98046A   24201.82194365  .00001976  00000+0  76056-3 0  9998
2 25413  44.9953  24.3502 0001277 345.8851  14.1959 14.33391732355455
ORBCOMM FM18            
1 25414U 98046B   24201.60925019  .00002696  00000+0  96293-3 0  9998
2 25414  44.9946 310.9330 0001999  38.9353 321.1638 14.36242448356569
ORBCOMM FM19            
1 25415U 98046C   24201.58625641  .00002443  00000+0  87984-3 0  9991
2 25415  44.9956 312.5480 0001017   4.2903  10.1559 14.36074315356353
